STARLINK-2022           
1 47643U 21012Z   24098.33292064  .00000235  00000+0  34642-4 0  9994
2 47643  53.0546 320.1299 0001387  87.0438 273.0709 15.06394014174557
